NORAD_CAT_ID,OBJECT_NAME,OBJECT_TYPE,EPOCH,MEAN_MOTION,ECCENTRICITY,INCLINATION,RA_OF_ASC_NODE,ARG_OF_PERICENTER,MEAN_ANOMALY,BSTAR,MEAN_MOTION_DOT,MEAN_MOTION_DDOT,TLE_LINE0,TLE_LINE1,TLE_LINE2,SEMIMAJOR_AXIS,PERIOD,APOGEE,PERIGEE,DECAYED
53022.0,STARLINK-4216,PAYLOAD,2023-11-23 22:25:56,15.08830442,0.0001538,53.2172,240.4569,106.1402,253.976,-6.0821e-05,-1.256e-05,0.0,0 STARLINK-4216,1 53022U 22076AN  23327.93468357 -.00001256  00000-0 -60821-4 0  9998,2 53022  53.2172 240.4569 0001538 106.1402 253.9760 15.08830442 76667,6917.91,95.438,540.839,538.711,0.0
53022.0,STARLINK-4216,PAYLOAD,2023-11-24 03:12:06,15.08832064,0.0001515,53.2177,239.5649,95.4117,264.7048,1.7013e-06,-2.61e-06,0.0,0 STARLINK-4216,1 53022U 22076AN  23328.13340496 -.00000261  00000-0  17013-5 0  9994,2 53022  53.2177 239.5649 0001515  95.4117 264.7048 15.08832064 76692,6917.905,95.438,540.818,538.722,0.0
53022.0,STARLINK-4216,PAYLOAD,2023-11-24 22:16:44,15.08835732,0.0001503,53.2177,236.0004,95.2121,264.9043,8.7733e-05,1.108e-05,0.0,0 STARLINK-4216,1 53022U 22076AN  23328.92828913  .00001108  00000-0  87733-4 0  9991,2 53022  53.2177 236.0004 0001503  95.2121 264.9043 15.08835732 76815,6917.893,95.438,540.798,538.719,0.0
53022.0,STARLINK-4216,PAYLOAD,2023-11-25 03:02:53,15.08844729,0.0001573,53.2179,235.104,89.2305,270.8868,0.00045632,6.983e-05,0.0,0 STARLINK-4216,1 53022U 22076AN  23329.12700822  .00006983  00000-0  45632-3 0  9999,2 53022  53.2179 235.1040 0001573  89.2305 270.8868 15.08844729 77314,6917.866,95.437,540.819,538.643,0.0
53022.0,STARLINK-4216,PAYLOAD,2023-11-25 22:07:30,15.08862935,0.0001603,53.2155,231.5406,137.5627,222.5489,0.00069266,0.0001076,0.0,0 STARLINK-4216,1 53022U 22076AN  23329.92187894  .00010760  00000-0  69266-3 0  9992,2 53022  53.2155 231.5406 0001603 137.5627 222.5489 15.08862935 76964,6917.81,95.436,540.784,538.566,0.0
53022.0,STARLINK-4216,PAYLOAD,2023-11-26 02:53:39,15.08899241,0.0001466,53.2169,230.6465,87.2734,272.8426,0.0020313,0.00032241,0.0,0 STARLINK-4216,1 53022U 22076AN  23330.12059333  .00032241  00000-0  20313-2 0  9999,2 53022  53.2169 230.6465 0001466  87.2734 272.8426 15.08899241 77466,6917.699,95.434,540.578,538.55,0.0
53022.0,STARLINK-4216,PAYLOAD,2023-11-26 17:12:08,15.08828875,0.0001948,53.2164,227.9734,93.2891,266.8324,0.00046408,7.103e-05,0.0,0 STARLINK-4216,1 53022U 22076AN  23330.71676592  .00007103  00000-0  46408-3 0  9999,2 53022  53.2164 227.9734 0001948  93.2891 266.8324 15.08828875 77550,6917.914,95.438,541.127,538.432,0.0
53022.0,STARLINK-4216,PAYLOAD,2023-11-26 21:58:18,15.08819178,0.0001411,53.2162,227.0817,71.0712,289.0433,-0.00038955,-6.479e-05,0.0,0 STARLINK-4216,1 53022U 22076AN  23330.91548923 -.00006479  00000-0 -38955-3 0  9992,2 53022  53.2162 227.0817 0001411  71.0712 289.0433 15.08819178 77118,6917.944,95.439,540.785,538.833,0.0
53022.0,STARLINK-4216,PAYLOAD,2023-11-27 02:44:27,15.08826895,0.0001386,53.2164,226.1867,88.6848,271.4303,-0.00015699,-2.785e-05,0.0,0 STARLINK-4216,1 53022U 22076AN  23331.11421037 -.00002785  00000-0 -15699-3 0  9997,2 53022  53.2164 226.1867 0001386  88.6848 271.4303 15.08826895 77610,6917.92,95.438,540.744,538.827,0.0
53022.0,STARLINK-4216,PAYLOAD,2023-11-27 21:49:05,15.08842703,0.000152,53.2165,222.6195,70.987,289.1287,0.00031248,4.689e-05,0.0,0 STARLINK-4216,1 53022U 22076AN  23331.90909259  .00004689  00000-0  31248-3 0  9992,2 53022  53.2165 222.6195 0001520  70.9870 289.1287 15.08842703 77269,6917.872,95.437,540.789,538.686,0.0
53022.0,STARLINK-4216,PAYLOAD,2023-11-28 02:35:15,15.08846075,0.0001487,53.2165,221.7272,72.8013,287.3142,0.00069274,0.00010756,0.0,0 STARLINK-4216,1 53022U 22076AN  23332.10781406  .00010756  00000-0  69274-3 0  9999,2 53022  53.2165 221.7272 0001487  72.8013 287.3142 15.08846075 77768,6917.862,95.437,540.756,538.698,0.0
53022.0,STARLINK-4216,PAYLOAD,2023-11-28 20:04:29,15.08848987,0.0001425,53.2163,218.4556,77.4036,282.7115,0.00035062,5.298e-05,0.0,0 STARLINK-4216,1 53022U 22076AN  23332.83645142  .00005298  00000-0  35062-3 0  9998,2 53022  53.2163 218.4556 0001425  77.4036 282.7115 15.08848987 77877,6917.853,95.437,540.704,538.732,0.0
53022.0,STARLINK-4216,PAYLOAD,2023-11-28 21:39:52,15.08850539,0.0001465,53.2163,218.1583,75.1355,284.98,0.00039417,5.993e-05,0.0,0 STARLINK-4216,1 53022U 22076AN  23332.90269111  .00005993  00000-0  39417-3 0  9994,2 53022  53.2163 218.1583 0001465  75.1355 284.9800 15.08850539 77418,6917.848,95.437,540.727,538.7,0.0
53022.0,STARLINK-4216,PAYLOAD,2023-11-29 02:26:01,15.08859019,0.0001466,53.2163,217.2657,78.9455,281.1702,0.00055398,8.544e-05,0.0,0 STARLINK-4216,1 53022U 22076AN  23333.10140741  .00008544  00000-0  55398-3 0  9995,2 53022  53.2163 217.2657 0001466  78.9455 281.1702 15.08859019 77448,6917.822,95.436,540.701,538.673,0.0
53022.0,STARLINK-4216,PAYLOAD,2023-11-29 19:55:15,15.08848639,0.0002183,53.216,213.9873,135.8709,224.2458,0.00019372,2.797e-05,0.0,0 STARLINK-4216,1 53022U 22076AN  23333.83004614  .00002797  00000-0  19372-3 0  9999,2 53022  53.2160 213.9873 0002183 135.8709 224.2458 15.08848639 78027,6917.854,95.437,541.229,538.209,0.0
53022.0,STARLINK-4216,PAYLOAD,2023-11-30 21:21:26,15.08832943,0.0001371,53.2159,209.2371,97.5121,262.6027,0.00019238,2.775e-05,0.0,0 STARLINK-4216,1 53022U 22076AN  23334.88989400  .00002775  00000-0  19238-3 0  9997,2 53022  53.2159 209.2371 0001371  97.5121 262.6027 15.08832943 78182,6917.902,95.438,540.715,538.819,0.0
53022.0,STARLINK-4216,PAYLOAD,2023-12-01 22:47:36,15.08861295,0.0001368,53.2153,204.4832,76.0303,284.0841,0.00096349,0.00015088,0.0,0 STARLINK-4216,1 53022U 22076AN  23335.94973283  .00015088  00000-0  96349-3 0  9996,2 53022  53.2153 204.4832 0001368  76.0303 284.0841 15.08861295 77874,6917.815,95.436,540.627,538.734,0.0
53022.0,STARLINK-4216,PAYLOAD,2023-12-02 00:22:59,15.08870182,0.0001422,53.2157,204.1852,93.04,267.0755,0.0013128,0.00020684,0.0,0 STARLINK-4216,1 53022U 22076AN  23336.01597056  .00020684  00000-0  13128-2 0  9996,2 53022  53.2157 204.1852 0001422  93.0400 267.0755 15.08870182 78359,6917.788,95.436,540.637,538.669,0.0
53022.0,STARLINK-4216,PAYLOAD,2023-12-02 19:27:37,15.08851542,0.0001334,53.2152,200.6153,77.7166,282.3975,0.00031669,4.757e-05,0.0,0 STARLINK-4216,1 53022U 22076AN  23336.81085036  .00004757  00000-0  31669-3 0  9998,2 53022  53.2152 200.6153 0001334  77.7166 282.3975 15.08851542 78475,6917.845,95.437,540.633,538.787,0.0
53022.0,STARLINK-4216,PAYLOAD,2023-12-02 21:03:00,15.08850591,0.000118,53.2147,200.3178,81.0416,279.0709,0.00074834,0.00011645,0.0,0 STARLINK-4216,1 53022U 22076AN  23336.87708989  .00011645  00000-0  74834-3 0  9998,2 53022  53.2147 200.3178 0001180  81.0416 279.0709 15.08850591 78019,6917.848,95.437,540.529,538.897,0.0
53022.0,STARLINK-4216,PAYLOAD,2023-12-03 14:32:15,15.08810033,0.0001441,53.2158,197.0445,130.7522,229.3595,0.00087549,0.00013662,0.0,0 STARLINK-4216,1 53022U 22076AN  23337.60573837  .00013662  00000-0  87549-3 0  9990,2 53022  53.2158 197.0445 0001441 130.7522 229.3595 15.08810033 78120,6917.972,95.439,540.834,538.84,0.0
53022.0,STARLINK-4216,PAYLOAD,2023-12-03 19:18:25,15.08824923,0.0001601,53.2152,196.1528,112.295,247.8212,0.00043401,6.623e-05,0.0,0 STARLINK-4216,1 53022U 22076AN  23337.80446117  .00006623  00000-0  43401-3 0  9990,2 53022  53.2152 196.1528 0001601 112.2950 247.8212 15.08824923 78623,6917.926,95.439,540.899,538.684,0.0
53022.0,STARLINK-4216,PAYLOAD,2023-12-04 14:23:03,15.08830787,0.0001324,53.2161,192.5856,114.8719,245.2411,0.00036063,5.455e-05,0.0,0 STARLINK-4216,1 53022U 22076AN  23338.59934836  .00005455  00000-0  36063-3 0  9995,2 53022  53.2161 192.5856 0001324 114.8719 245.2411 15.08830787 78279,6917.909,95.438,540.689,538.858,0.0
53022.0,STARLINK-4216,PAYLOAD,2023-12-04 15:58:26,15.08834371,0.0001351,53.2153,192.2892,111.3702,248.7434,0.00050029,7.682e-05,0.0,0 STARLINK-4216,1 53022U 22076AN  23338.66558816  .00007682  00000-0  50029-3 0  9995,2 53022  53.2153 192.2892 0001351 111.3702 248.7434 15.08834371 78288,6917.898,95.438,540.697,538.828,0.0
53022.0,STARLINK-4216,PAYLOAD,2023-12-04 23:55:22,15.08840874,0.0001344,53.2153,190.8023,108.6602,251.4536,0.00057516,8.878e-05,0.0,0 STARLINK-4216,1 53022U 22076AN  23338.99678818  .00008878  00000-0  57516-3 0  9992,2 53022  53.2153 190.8023 0001344 108.6602 251.4536 15.08840874 78805,6917.878,95.437,540.672,538.813,0.0
53022.0,STARLINK-4216,PAYLOAD,2023-12-05 23:46:08,15.08860216,0.0001352,53.2155,186.3421,99.0752,261.0393,0.00054939,8.471e-05,0.0,0 STARLINK-4216,1 53022U 22076AN  23339.99037973  .00008471  00000-0  54939-3 0  9999,2 53022  53.2155 186.3421 0001352  99.0752 261.0393 15.08860216 78481,6917.819,95.436,540.619,538.748,0.0
53022.0,STARLINK-4216,PAYLOAD,2023-12-06 23:36:55,15.08847616,0.0001307,53.2163,181.8816,92.9186,267.1956,0.00038393,5.829e-05,0.0,0 STARLINK-4216,1 53022U 22076AN  23340.98397738  .00005829  00000-0  38393-3 0  9998,2 53022  53.2163 181.8816 0001307  92.9186 267.1956 15.08847616 79102,6917.857,95.437,540.626,538.818,0.0
53022.0,STARLINK-4216,PAYLOAD,2023-12-08 23:18:29,15.08840124,0.0001217,53.2153,172.9607,105.4721,254.6405,0.00010479,1.38e-05,0.0,0 STARLINK-4216,1 53022U 22076AN  23342.97117770  .00001380  00000-0  10479-3 0  9998,2 53022  53.2153 172.9607 0001217 105.4721 254.6405 15.08840124 79405,6917.88,95.438,540.587,538.903,0.0
53022.0,STARLINK-4216,PAYLOAD,2023-12-10 11:52:22,15.08836653,0.0001466,53.2171,166.1271,48.7362,311.3756,4.0703e-05,3.6e-06,0.0,0 STARLINK-4216,1 53022U 22076AN  23344.49470216  .00000360  00000-0  40703-4 0  9995,2 53022  53.2171 166.1271 0001466  48.7362 311.3756 15.08836653 79630,6917.891,95.438,540.77,538.741,0.0
53022.0,STARLINK-4216,PAYLOAD,2023-12-10 19:49:18,15.08839083,0.0001341,53.2165,164.6348,80.8057,279.3087,8.5278e-05,1.07e-05,0.0,0 STARLINK-4216,1 53022U 22076AN  23344.82590317  .00001070  00000-0  85278-4 0  9992,2 53022  53.2165 164.6348 0001341  80.8057 279.3087 15.08839083 79215,6917.883,95.438,540.676,538.821,0.0
